[{"CCSDS_OMM_VERS":"2.0","COMMENT":"GENERATED VIA SPACE-TRACK.ORG API","CREATION_DATE":"2020-09-28T17:37:32","ORIGINATOR":"18 SPCS","OBJECT_NAME":"GALILEO-FM2","OBJECT_ID":"2011-060B","CENTER_NAME":"EARTH","REF_FRAME":"TEME","TIME_SYSTEM":"UTC","MEAN_ELEMENT_THEORY":"SGP4","EPOCH":"2020-09-28T05:11:12.667776","MEAN_MOTION":"1.70475537","ECCENTRICITY":"0.00019760","INCLINATION":"56.6946","RA_OF_ASC_NODE":"38.4628","ARG_OF_PERICENTER":"302.8609","MEAN_ANOMALY":"118.6702","EPHEMERIS_TYPE":"0","CLASSIFICATION_TYPE":"U","NORAD_CAT_ID":"37847","ELEMENT_SET_NO":"999","REV_AT_EPOCH":"5553","BSTAR":"0.00000000000000","MEAN_MOTION_DOT":"-0.00000084","MEAN_MOTION_DDOT":"0.0000000000000","SEMIMAJOR_AXIS":"29600.142","PERIOD":"844.695","APOAPSIS":"23227.856","PERIAPSIS":"23216.158","OBJECT_TYPE":"PAYLOAD","RCS_SIZE":"LARGE","COUNTRY_CODE":"ESA","LAUNCH_DATE":"2011-10-21","SITE":"FRGUI","DECAY_DATE":null,"FILE":"2837055","GP_ID":"162385524","TLE_LINE0":"0 GALILEO-FM2","TLE_LINE1":"1 37847U 11060B   20272.21611884 -.00000084 +00000-0 +00000-0 0  9994","TLE_LINE2":"2 37847 056.6946 038.4628 0001976 302.8609 118.6702 01.70475537055531"},{"CCSDS_OMM_VERS":"2.0","COMMENT":"GENERATED VIA SPACE-TRACK.ORG API","CREATION_DATE":"2020-09-29T20:48:23","ORIGINATOR":"18 SPCS","OBJECT_NAME":"GALILEO-FM2","OBJECT_ID":"2011-060B","CENTER_NAME":"EARTH","REF_FRAME":"TEME","TIME_SYSTEM":"UTC","MEAN_ELEMENT_THEORY":"SGP4","EPOCH":"2020-09-29T06:56:42.667008","MEAN_MOTION":"1.70475575","ECCENTRICITY":"0.00019960","INCLINATION":"56.6953","RA_OF_ASC_NODE":"38.4334","ARG_OF_PERICENTER":"302.0985","MEAN_ANOMALY":"58.1187","EPHEMERIS_TYPE":"0","CLASSIFICATION_TYPE":"U","NORAD_CAT_ID":"37847","ELEMENT_SET_NO":"999","REV_AT_EPOCH":"5555","BSTAR":"0.00000000000000","MEAN_MOTION_DOT":"-0.00000084","MEAN_MOTION_DDOT":"0.0000000000000","SEMIMAJOR_AXIS":"29600.137","PERIOD":"844.695","APOAPSIS":"23227.910","PERIAPSIS":"23216.094","OBJECT_TYPE":"PAYLOAD","RCS_SIZE":"LARGE","COUNTRY_CODE":"ESA","LAUNCH_DATE":"2011-10-21","SITE":"FRGUI","DECAY_DATE":null,"FILE":"2837957","GP_ID":"162443555","TLE_LINE0":"0 GALILEO-FM2","TLE_LINE1":"1 37847U 11060B   20273.28938272 -.00000084 +00000-0 +00000-0 0  9995","TLE_LINE2":"2 37847 056.6953 038.4334 0001996 302.0985 058.1187 01.70475575055553"},{"CCSDS_OMM_VERS":"2.0","COMMENT":"GENERATED VIA SPACE-TRACK.ORG API","CREATION_DATE":"2020-09-30T03:48:57","ORIGINATOR":"18 SPCS","OBJECT_NAME":"GALILEO-FM2","OBJECT_ID":"2011-060B","CENTER_NAME":"EARTH","REF_FRAME":"TEME","TIME_SYSTEM":"UTC","MEAN_ELEMENT_THEORY":"SGP4","EPOCH":"2020-09-29T22:08:14.617824","MEAN_MOTION":"1.70475594","ECCENTRICITY":"0.00020100","INCLINATION":"56.6956","RA_OF_ASC_NODE":"38.4161","ARG_OF_PERICENTER":"301.7332","MEAN_ANOMALY":"86.9756","EPHEMERIS_TYPE":"0","CLASSIFICATION_TYPE":"U","NORAD_CAT_ID":"37847","ELEMENT_SET_NO":"999","REV_AT_EPOCH":"5556","BSTAR":"0.00000000000000","MEAN_MOTION_DOT":"-0.00000084","MEAN_MOTION_DDOT":"0.0000000000000","SEMIMAJOR_AXIS":"29600.135","PERIOD":"844.695","APOAPSIS":"23227.950","PERIAPSIS":"23216.050","OBJECT_TYPE":"PAYLOAD","RCS_SIZE":"LARGE","COUNTRY_CODE":"ESA","LAUNCH_DATE":"2011-10-21","SITE":"FRGUI","DECAY_DATE":null,"FILE":"2838000","GP_ID":"162462727","TLE_LINE0":"0 GALILEO-FM2","TLE_LINE1":"1 37847U 11060B   20273.92239141 -.00000084 +00000-0 +00000-0 0  9995","TLE_LINE2":"2 37847 056.6956 038.4161 0002010 301.7332 086.9756 01.70475594055567"},{"CCSDS_OMM_VERS":"2.0","COMMENT":"GENERATED VIA SPACE-TRACK.ORG API","CREATION_DATE":"2020-09-30T19:42:07","ORIGINATOR":"18 SPCS","OBJECT_NAME":"GALILEO-FM2","OBJECT_ID":"2011-060B","CENTER_NAME":"EARTH","REF_FRAME":"TEME","TIME_SYSTEM":"UTC","MEAN_ELEMENT_THEORY":"SGP4","EPOCH":"2020-09-30T11:14:08.426112","MEAN_MOTION":"1.70475609","ECCENTRICITY":"0.00020200","INCLINATION":"56.6959","RA_OF_ASC_NODE":"38.4012","ARG_OF_PERICENTER":"301.3974","MEAN_ANOMALY":"62.2575","EPHEMERIS_TYPE":"0","CLASSIFICATION_TYPE":"U","NORAD_CAT_ID":"37847","ELEMENT_SET_NO":"999","REV_AT_EPOCH":"5557","BSTAR":"0.00000000000000","MEAN_MOTION_DOT":"-0.00000083","MEAN_MOTION_DDOT":"0.0000000000000","SEMIMAJOR_AXIS":"29600.133","PERIOD":"844.695","APOAPSIS":"23227.978","PERIAPSIS":"23216.019","OBJECT_TYPE":"PAYLOAD","RCS_SIZE":"LARGE","COUNTRY_CODE":"ESA","LAUNCH_DATE":"2011-10-21","SITE":"FRGUI","DECAY_DATE":null,"FILE":"2838070","GP_ID":"162485025","TLE_LINE0":"0 GALILEO-FM2","TLE_LINE1":"1 37847U 11060B   20274.46815308 -.00000083 +00000-0 +00000-0 0  9999","TLE_LINE2":"2 37847 056.6959 038.4012 0002020 301.3974 062.2575 01.70475609055578"},{"CCSDS_OMM_VERS":"2.0","COMMENT":"GENERATED VIA SPACE-TRACK.ORG API","CREATION_DATE":"2020-10-01T02:06:11","ORIGINATOR":"18 SPCS","OBJECT_NAME":"GALILEO-FM2","OBJECT_ID":"2011-060B","CENTER_NAME":"EARTH","REF_FRAME":"TEME","TIME_SYSTEM":"UTC","MEAN_ELEMENT_THEORY":"SGP4","EPOCH":"2020-09-30T11:14:08.426112","MEAN_MOTION":"1.70475609","ECCENTRICITY":"0.00020200","INCLINATION":"56.6959","RA_OF_ASC_NODE":"38.4012","ARG_OF_PERICENTER":"301.3974","MEAN_ANOMALY":"62.2575","EPHEMERIS_TYPE":"0","CLASSIFICATION_TYPE":"U","NORAD_CAT_ID":"37847","ELEMENT_SET_NO":"999","REV_AT_EPOCH":"5569","BSTAR":"0.00000000000000","MEAN_MOTION_DOT":"-0.00000083","MEAN_MOTION_DDOT":"0.0000000000000","SEMIMAJOR_AXIS":"29600.133","PERIOD":"844.695","APOAPSIS":"23227.978","PERIAPSIS":"23216.019","OBJECT_TYPE":"PAYLOAD","RCS_SIZE":"LARGE","COUNTRY_CODE":"ESA","LAUNCH_DATE":"2011-10-21","SITE":"FRGUI","DECAY_DATE":null,"FILE":"2838736","GP_ID":"162529580","TLE_LINE0":"0 GALILEO-FM2","TLE_LINE1":"1 37847U 11060B   20274.46815308 -.00000083  00000-0  00000+0 0  9998","TLE_LINE2":"2 37847  56.6959  38.4012 0002020 301.3974  62.2575  1.70475609 55691"},{"CCSDS_OMM_VERS":"2.0","COMMENT":"GENERATED VIA SPACE-TRACK.ORG API","CREATION_DATE":"2020-10-01T17:48:54","ORIGINATOR":"18 SPCS","OBJECT_NAME":"GALILEO-FM2","OBJECT_ID":"2011-060B","CENTER_NAME":"EARTH","REF_FRAME":"TEME","TIME_SYSTEM":"UTC","MEAN_ELEMENT_THEORY":"SGP4","EPOCH":"2020-10-01T01:09:42.799392","MEAN_MOTION":"1.70475623","ECCENTRICITY":"0.00020330","INCLINATION":"56.6962","RA_OF_ASC_NODE":"38.3853","ARG_OF_PERICENTER":"301.0124","MEAN_ANOMALY":"58.7606","EPHEMERIS_TYPE":"0","CLASSIFICATION_TYPE":"U","NORAD_CAT_ID":"37847","ELEMENT_SET_NO":"999","REV_AT_EPOCH":"5557","BSTAR":"0.00000000000000","MEAN_MOTION_DOT":"-0.00000082","MEAN_MOTION_DDOT":"0.0000000000000","SEMIMAJOR_AXIS":"29600.132","PERIOD":"844.695","APOAPSIS":"23228.014","PERIAPSIS":"23215.979","OBJECT_TYPE":"PAYLOAD","RCS_SIZE":"LARGE","COUNTRY_CODE":"ESA","LAUNCH_DATE":"2011-10-21","SITE":"FRGUI","DECAY_DATE":null,"FILE":"2839403","GP_ID":"162556710","TLE_LINE0":"0 GALILEO-FM2","TLE_LINE1":"1 37847U 11060B   20275.04841203 -.00000082 +00000-0 +00000-0 0  9996","TLE_LINE2":"2 37847 056.6962 038.3853 0002033 301.0124 058.7606 01.70475623055573"},{"CCSDS_OMM_VERS":"2.0","COMMENT":"GENERATED VIA SPACE-TRACK.ORG API","CREATION_DATE":"2020-10-02T02:09:23","ORIGINATOR":"18 SPCS","OBJECT_NAME":"GALILEO-FM2","OBJECT_ID":"2011-060B","CENTER_NAME":"EARTH","REF_FRAME":"TEME","TIME_SYSTEM":"UTC","MEAN_ELEMENT_THEORY":"SGP4","EPOCH":"2020-10-01T14:58:42.582144","MEAN_MOTION":"1.70475634","ECCENTRICITY":"0.00020450","INCLINATION":"56.6965","RA_OF_ASC_NODE":"38.3696","ARG_OF_PERICENTER":"300.6348","MEAN_ANOMALY":"52.4532","EPHEMERIS_TYPE":"0","CLASSIFICATION_TYPE":"U","NORAD_CAT_ID":"37847","ELEMENT_SET_NO":"999","REV_AT_EPOCH":"5558","BSTAR":"0.00000000000000","MEAN_MOTION_DOT":"-0.00000081","MEAN_MOTION_DDOT":"0.0000000000000","SEMIMAJOR_AXIS":"29600.130","PERIOD":"844.695","APOAPSIS":"23228.049","PERIAPSIS":"23215.942","OBJECT_TYPE":"PAYLOAD","RCS_SIZE":"LARGE","COUNTRY_CODE":"ESA","LAUNCH_DATE":"2011-10-21","SITE":"FRGUI","DECAY_DATE":null,"FILE":"2839626","GP_ID":"162583096","TLE_LINE0":"0 GALILEO-FM2","TLE_LINE1":"1 37847U 11060B   20275.62410396 -.00000081 +00000-0 +00000-0 0  9994","TLE_LINE2":"2 37847 056.6965 038.3696 0002045 300.6348 052.4532 01.70475634055589"},{"CCSDS_OMM_VERS":"2.0","COMMENT":"GENERATED VIA SPACE-TRACK.ORG API","CREATION_DATE":"2020-10-03T04:36:52","ORIGINATOR":"18 SPCS","OBJECT_NAME":"GALILEO-FM2","OBJECT_ID":"2011-060B","CENTER_NAME":"EARTH","REF_FRAME":"TEME","TIME_SYSTEM":"UTC","MEAN_ELEMENT_THEORY":"SGP4","EPOCH":"2020-10-02T19:33:46.291104","MEAN_MOTION":"1.70475647","ECCENTRICITY":"0.00020750","INCLINATION":"56.6972","RA_OF_ASC_NODE":"38.3370","ARG_OF_PERICENTER":"299.7932","MEAN_ANOMALY":"64.2476","EPHEMERIS_TYPE":"0","CLASSIFICATION_TYPE":"U","NORAD_CAT_ID":"37847","ELEMENT_SET_NO":"999","REV_AT_EPOCH":"5561","BSTAR":"0.00000000000000","MEAN_MOTION_DOT":"-0.00000077","MEAN_MOTION_DDOT":"0.0000000000000","SEMIMAJOR_AXIS":"29600.129","PERIOD":"844.695","APOAPSIS":"23228.136","PERIAPSIS":"23215.852","OBJECT_TYPE":"PAYLOAD","RCS_SIZE":"LARGE","COUNTRY_CODE":"ESA","LAUNCH_DATE":"2011-10-21","SITE":"FRGUI","DECAY_DATE":null,"FILE":"2840435","GP_ID":"162641514","TLE_LINE0":"0 GALILEO-FM2","TLE_LINE1":"1 37847U 11060B   20276.81511911 -.00000077 +00000-0 +00000-0 0  9996","TLE_LINE2":"2 37847 056.6972 038.3370 0002075 299.7932 064.2476 01.70475647055612"}]